{
  "type": "FeatureCollection",
  "features": [
    {
      "type": "Feature",
      "properties": {
        "norad_id": 66326,
        "name": "STARLINK-35479",
        "group": "last-30-days",
        "lat": 38.89258142371949,
        "lon": 79.97820201974665,
        "alt_km": 408.1317345310799,
        "timestamp": "2025-12-06T16:45:41.513582+00:00",
        "meta_object_name": "STARLINK-35479",
        "meta_object_id": "2025-253H",
        "meta_epoch": "2025-12-04T15:00:38.013408",
        "meta_mean_motion": 15.50615042,
        "meta_eccentricity": 0.0001415,
        "meta_inclination": 43.0005,
        "meta_ra_of_asc_node": 32.1514,
        "meta_arg_of_pericenter": 287.7439,
        "meta_mean_anomaly": 72.3267,
        "meta_ephemeris_type": 0,
        "meta_classification_type": "U",
        "meta_norad_cat_id": 66326,
        "meta_element_set_no": 999,
        "meta_rev_at_epoch": 567,
        "meta_bstar": 0.001591,
        "meta_mean_motion_dot": 0.00094247,
        "meta_mean_motion_ddot": 0,
        "tle_line1": "1 66326U 25253H   25338.62543997  .00094247  00000+0  15910-2 0  9999",
        "tle_line2": "2 66326  43.0005  32.1514 0001415 287.7439  72.3267 15.50615042  5678"
      },
      "geometry": {
        "type": "Point",
        "coordinates": [
          79.97820201974665,
          38.89258142371949
        ]
      }
    },
    {
      "type": "Feature",
      "properties": {
        "norad_id": 66327,
        "name": "STARLINK-35507",
        "group": "last-30-days",
        "lat": 33.40909722288569,
        "lon": 65.11991200240824,
        "alt_km": 410.4415656500414,
        "timestamp": "2025-12-06T16:45:41.513596+00:00",
        "meta_object_name": "STARLINK-35507",
        "meta_object_id": "2025-253J",
        "meta_epoch": "2025-12-06T08:00:01.999872",
        "meta_mean_motion": 15.50605536,
        "meta_eccentricity": 0.0001456,
        "meta_inclination": 43.0003,
        "meta_ra_of_asc_node": 22.1962,
        "meta_arg_of_pericenter": 277.3379,
        "meta_mean_anomaly": 256.4263,
        "meta_ephemeris_type": 0,
        "meta_classification_type": "U",
        "meta_norad_cat_id": 66327,
        "meta_element_set_no": 999,
        "meta_rev_at_epoch": 599,
        "meta_bstar": -0.00091907296,
        "meta_mean_motion_dot": -0.0005394,
        "meta_mean_motion_ddot": 0,
        "tle_line1": "1 66327U 25253J   25340.33335648 -.00053940  00000+0 -91907-3 0  9991",
        "tle_line2": "2 66327  43.0003  22.1962 0001456 277.3379 256.4263 15.50605536  5999"
      },
      "geometry": {
        "type": "Point",
        "coordinates": [
          65.11991200240824,
          33.40909722288569
        ]
      }
    },
    {
      "type": "Feature",
      "properties": {
        "norad_id": 66328,
        "name": "STARLINK-35460",
        "group": "last-30-days",
        "lat": -40.11702296278485,
        "lon": -44.354747698091785,
        "alt_km": 446.50394688045253,
        "timestamp": "2025-12-06T16:45:41.513607+00:00",
        "meta_object_name": "STARLINK-35460",
        "meta_object_id": "2025-253K",
        "meta_epoch": "2025-12-06T08:00:01.999872",
        "meta_mean_motion": 15.40738435,
        "meta_eccentricity": 0.00013632,
        "meta_inclination": 43.0005,
        "meta_ra_of_asc_node": 22.4635,
        "meta_arg_of_pericenter": 270.5902,
        "meta_mean_anomaly": 151.3865,
        "meta_ephemeris_type": 0,
        "meta_classification_type": "U",
        "meta_norad_cat_id": 66328,
        "meta_element_set_no": 999,
        "meta_rev_at_epoch": 599,
        "meta_bstar": -0.0023981604,
        "meta_mean_motion_dot": -0.00099314,
        "meta_mean_motion_ddot": 0,
        "tle_line1": "1 66328U 25253K   25340.33335648 -.00099314  00000+0 -23982-2 0  9994",
        "tle_line2": "2 66328  43.0005  22.4635 0001363 270.5902 151.3865 15.40738435  5991"
      },
      "geometry": {
        "type": "Point",
        "coordinates": [
          -44.354747698091785,
          -40.11702296278485
        ]
      }
    },
    {
      "type": "Feature",
      "properties": {
        "norad_id": 66329,
        "name": "STARLINK-35505",
        "group": "last-30-days",
        "lat": 33.995499277510895,
        "lon": 66.4169647686754,
        "alt_km": 407.9304771696843,
        "timestamp": "2025-12-06T16:45:41.513621+00:00",
        "meta_object_name": "STARLINK-35505",
        "meta_object_id": "2025-253L",
        "meta_epoch": "2025-12-05T20:25:59.154240",
        "meta_mean_motion": 15.50829016,
        "meta_eccentricity": 0.00016573,
        "meta_inclination": 43.0002,
        "meta_ra_of_asc_node": 25.0138,
        "meta_arg_of_pericenter": 320.9763,
        "meta_mean_anomaly": 39.0978,
        "meta_ephemeris_type": 0,
        "meta_classification_type": "U",
        "meta_norad_cat_id": 66329,
        "meta_element_set_no": 999,
        "meta_rev_at_epoch": 586,
        "meta_bstar": 0.0032245979,
        "meta_mean_motion_dot": 0.00195359,
        "meta_mean_motion_ddot": 0,
        "tle_line1": "1 66329U 25253L   25339.85137910  .00195359  00000+0  32246-2 0  9999",
        "tle_line2": "2 66329  43.0002  25.0138 0001657 320.9763  39.0978 15.50829016  5867"
      },
      "geometry": {
        "type": "Point",
        "coordinates": [
          66.4169647686754,
          33.995499277510895
        ]
      }
    },
    {
      "type": "Feature",
      "properties": {
        "norad_id": 66330,
        "name": "STARLINK-35512",
        "group": "last-30-days",
        "lat": -22.83000790937397,
        "lon": -132.602514519409,
        "alt_km": 445.6021921861675,
        "timestamp": "2025-12-06T16:45:41.513632+00:00",
        "meta_object_name": "STARLINK-35512",
        "meta_object_id": "2025-253M",
        "meta_epoch": "2025-12-06T03:23:16.526400",
        "meta_mean_motion": 15.40745181,
        "meta_eccentricity": 7.198e-05,
        "meta_inclination": 42.9964,
        "meta_ra_of_asc_node": 23.7494,
        "meta_arg_of_pericenter": 267.2763,
        "meta_mean_anomaly": 92.8011,
        "meta_ephemeris_type": 0,
        "meta_classification_type": "U",
        "meta_norad_cat_id": 66330,
        "meta_element_set_no": 999,
        "meta_rev_at_epoch": 590,
        "meta_bstar": 0.0016266166,
        "meta_mean_motion_dot": 0.00068358,
        "meta_mean_motion_ddot": 0,
        "tle_line1": "1 66330U 25253M   25340.14116350  .00068358  00000+0  16266-2 0  9992",
        "tle_line2": "2 66330  42.9964  23.7494 0000719 267.2763  92.8011 15.40745181  5904"
      },
      "geometry": {
        "type": "Point",
        "coordinates": [
          -132.602514519409,
          -22.83000790937397
        ]
      }
    },
    {
      "type": "Feature",
      "properties": {
        "norad_id": 66331,
        "name": "STARLINK-35257",
        "group": "last-30-days",
        "lat": 36.55420370076632,
        "lon": 72.75686751377597,
        "alt_km": 428.4151715379476,
        "timestamp": "2025-12-06T16:45:41.513643+00:00",
        "meta_object_name": "STARLINK-35257",
        "meta_object_id": "2025-253N",
        "meta_epoch": "2025-12-06T08:00:01.999872",
        "meta_mean_motion": 15.4589773,
        "meta_eccentricity": 0.00010107,
        "meta_inclination": 43.0001,
        "meta_ra_of_asc_node": 22.1586,
        "meta_arg_of_pericenter": 283.6615,
        "meta_mean_anomaly": 264.3772,
        "meta_ephemeris_type": 0,
        "meta_classification_type": "U",
        "meta_norad_cat_id": 66331,
        "meta_element_set_no": 999,
        "meta_rev_at_epoch": 563,
        "meta_bstar": -0.046542047,
        "meta_mean_motion_dot": -0.02059606,
        "meta_mean_motion_ddot": 0,
        "tle_line1": "1 66331U 25253N   25340.33335648 -.02059606  00000+0 -46542-1 0  9996",
        "tle_line2": "2 66331  43.0001  22.1586 0001010 283.6615 264.3772 15.45897730  5630"
      },
      "geometry": {
        "type": "Point",
        "coordinates": [
          72.75686751377597,
          36.55420370076632
        ]
      }
    },
    {
      "type": "Feature",
      "properties": {
        "norad_id": 66332,
        "name": "STARLINK-35322",
        "group": "last-30-days",
        "lat": -35.54628000033789,
        "lon": -29.732444265322414,
        "alt_km": 446.7638279696812,
        "timestamp": "2025-12-06T16:45:41.513655+00:00",
        "meta_object_name": "STARLINK-35322",
        "meta_object_id": "2025-253P",
        "meta_epoch": "2025-12-06T08:00:01.999872",
        "meta_mean_motion": 15.40739155,
        "meta_eccentricity": 9.423e-05,
        "meta_inclination": 43.0006,
        "meta_ra_of_asc_node": 22.4344,
        "meta_arg_of_pericenter": 250.998,
        "meta_mean_anomaly": 183.4202,
        "meta_ephemeris_type": 0,
        "meta_classification_type": "U",
        "meta_norad_cat_id": 66332,
        "meta_element_set_no": 999,
        "meta_rev_at_epoch": 590,
        "meta_bstar": -0.0026824296,
        "meta_mean_motion_dot": -0.00110882,
        "meta_mean_motion_ddot": 0,
        "tle_line1": "1 66332U 25253P   25340.33335648 -.00110882  00000+0 -26824-2 0  9991",
        "tle_line2": "2 66332  43.0006  22.4344 0000942 250.9980 183.4202 15.40739155  5906"
      },
      "geometry": {
        "type": "Point",
        "coordinates": [
          -29.732444265322414,
          -35.54628000033789
        ]
      }
    }
  ]
}